[{"OBJECT_NAME":"STARLINK-4318","OBJECT_ID":"2022-077AV","EPOCH":"2026-03-09T10:48:22.686048","MEAN_MOTION":15.0127407,"ECCENTRICITY":0.00012121,"INCLINATION":97.6032,"RA_OF_ASC_NODE":249.9879,"ARG_OF_PERICENTER":113.2283,"MEAN_ANOMALY":246.907,"EPHEMERIS_TYPE":0,"CLASSIFICATION_TYPE":"U","NORAD_CAT_ID":53086,"ELEMENT_SET_NO":999,"REV_AT_EPOCH":20088,"BSTAR":0.0001256365,"MEAN_MOTION_DOT":1.556e-5,"MEAN_MOTION_DDOT":0},{"OBJECT_NAME":"UNISAT-5","OBJECT_ID":"2013-066F","EPOCH":"2026-03-09T22:02:55.134816","MEAN_MOTION":15.04155626,"ECCENTRICITY":0.00317175,"INCLINATION":97.6976,"RA_OF_ASC_NODE":39.5171,"ARG_OF_PERICENTER":68.1555,"MEAN_ANOMALY":292.3039,"EPHEMERIS_TYPE":0,"CLASSIFICATION_TYPE":"U","NORAD_CAT_ID":39421,"ELEMENT_SET_NO":999,"REV_AT_EPOCH":66774,"BSTAR":0.0004680489,"MEAN_MOTION_DOT":6.504e-5,"MEAN_MOTION_DDOT":0}]
